FLOCK 4G-13             
1 62621U 25009N   26068.70638971  .00053076  00000+0  16695-2 0  9995
2 62621  97.4019 151.0918 0003801 292.7207  67.3633 15.32770015 63700
STARLINK-35243          
1 66016U 25232M   26068.50496592  .00024746  00000+0  84492-3 0  9997
2 66016  53.1590 105.0214 0001232  98.0949 262.0192 15.30197658 23400
